O3B MPOWER F1           
1 54755U 22174A   24017.39404907 -.00000016  00000+0  00000+0 0  9998
2 54755   0.0588  12.6443 0006195 296.0992 355.7660  5.00118384 21237
